{
  "norad_id": 57047,
  "name": "SHIYAN-25 (SY-25)",
  "history": [
    {
      "epoch": "2026-03-26T06:44:33.756864Z",
      "apogee_km": 282.26565229008247,
      "perigee_km": 261.3574161047427,
      "latitude_deg": -4.342249113421317e-05,
      "longitude_deg": -138.34620454766002,
      "height_km": 281.19781033356077,
      "semi_major_axis_km": 6649.948534197412,
      "eccentricity": 0.00157206,
      "inclination_deg": 96.7429,
      "raan_deg": 146.5268,
      "arg_perigee_deg": 233.9058,
      "mean_anomaly_deg": 126.0767,
      "mean_motion_rev_day": 16.00941032
    },
    {
      "epoch": "2026-03-31T14:15:14.348448Z",
      "apogee_km": 282.54038640160525,
      "perigee_km": 261.4687478320384,
      "latitude_deg": -4.520132015656079e-05,
      "longitude_deg": 109.09576132532824,
      "height_km": 281.74055590159696,
      "semi_major_axis_km": 6650.1415671168215,
      "eccentricity": 0.0015843,
      "inclination_deg": 96.7426,
      "raan_deg": 151.8746,
      "arg_perigee_deg": 231.8491,
      "mean_anomaly_deg": 128.1362,
      "mean_motion_rev_day": 16.00871327
    }
  ]
}